CCSDS_OMM_VERS = 2.0
CREATION_DATE  = 
ORIGINATOR     = 

OBJECT_NAME    = COSMOS 1933
OBJECT_ID      = 1988-020A
CENTER_NAME    = EARTH
REF_FRAME      = TEME
TIME_SYSTEM    = UTC
MEAN_ELEMENT_THEORY = SGP/SGP4

EPOCH          = 2025-12-07T17:45:41.716224
MEAN_MOTION    = 15.17049358
ECCENTRICITY   = .00054402
INCLINATION    = 82.5134
RA_OF_ASC_NODE = 341.8188
ARG_OF_PERICENTER = 141.6847
MEAN_ANOMALY   = 218.4773

EPHEMERIS_TYPE = 0
CLASSIFICATION_TYPE = U
NORAD_CAT_ID   = 18958
ELEMENT_SET_NO = 999
REV_AT_EPOCH   = 3628
BSTAR          = .35750676E-3
MEAN_MOTION_DOT = .7104E-4
MEAN_MOTION_DDOT = 0

CCSDS_OMM_VERS = 2.0
CREATION_DATE  = 
ORIGINATOR     = 

OBJECT_NAME    = SL-3 R/B
OBJECT_ID      = 1988-032B
CENTER_NAME    = EARTH
REF_FRAME      = TEME
TIME_SYSTEM    = UTC
MEAN_ELEMENT_THEORY = SGP/SGP4

EPOCH          = 2025-12-07T22:04:43.339584
MEAN_MOTION    = 15.18666663
ECCENTRICITY   = .00261858
INCLINATION    = 97.5078
RA_OF_ASC_NODE = 320.6736
ARG_OF_PERICENTER = 189.8109
MEAN_ANOMALY   = 170.2617

EPHEMERIS_TYPE = 0
CLASSIFICATION_TYPE = U
NORAD_CAT_ID   = 19046
ELEMENT_SET_NO = 999
REV_AT_EPOCH   = 3817
BSTAR          = .32114488E-3
MEAN_MOTION_DOT = .6646E-4
MEAN_MOTION_DDOT = 0

CCSDS_OMM_VERS = 2.0
CREATION_DATE  = 
ORIGINATOR     = 

OBJECT_NAME    = SL-16 R/B
OBJECT_ID      = 1988-039B
CENTER_NAME    = EARTH
REF_FRAME      = TEME
TIME_SYSTEM    = UTC
MEAN_ELEMENT_THEORY = SGP/SGP4

EPOCH          = 2025-12-07T22:55:51.160800
MEAN_MOTION    = 14.19595679
ECCENTRICITY   = .00198451
INCLINATION    = 71.0152
RA_OF_ASC_NODE = 262.5139
ARG_OF_PERICENTER = 124.3736
MEAN_ANOMALY   = 235.9270

EPHEMERIS_TYPE = 0
CLASSIFICATION_TYPE = U
NORAD_CAT_ID   = 19120
ELEMENT_SET_NO = 999
REV_AT_EPOCH   = 94536
BSTAR          = .12277534E-3
MEAN_MOTION_DOT = .212E-5
MEAN_MOTION_DDOT = 0

CCSDS_OMM_VERS = 2.0
CREATION_DATE  = 
ORIGINATOR     = 

OBJECT_NAME    = COSMOS 1953
OBJECT_ID      = 1988-050A
CENTER_NAME    = EARTH
REF_FRAME      = TEME
TIME_SYSTEM    = UTC
MEAN_ELEMENT_THEORY = SGP/SGP4

EPOCH          = 2025-12-07T18:56:34.738944
MEAN_MOTION    = 15.26853706
ECCENTRICITY   = .00138581
INCLINATION    = 82.5094
RA_OF_ASC_NODE = 250.5477
ARG_OF_PERICENTER = 86.4913
MEAN_ANOMALY   = 273.7910

EPHEMERIS_TYPE = 0
CLASSIFICATION_TYPE = U
NORAD_CAT_ID   = 19210
ELEMENT_SET_NO = 999
REV_AT_EPOCH   = 2375
BSTAR          = .35463058E-3
MEAN_MOTION_DOT = .9413E-4
MEAN_MOTION_DDOT = 0

CCSDS_OMM_VERS = 2.0
CREATION_DATE  = 
ORIGINATOR     = 

OBJECT_NAME    = SL-8 R/B
OBJECT_ID      = 1988-053B
CENTER_NAME    = EARTH
REF_FRAME      = TEME
TIME_SYSTEM    = UTC
MEAN_ELEMENT_THEORY = SGP/SGP4

EPOCH          = 2025-12-07T22:50:45.284064
MEAN_MOTION    = 14.38854337
ECCENTRICITY   = .00190896
INCLINATION    = 74.0476
RA_OF_ASC_NODE = 281.5435
ARG_OF_PERICENTER = 127.4492
MEAN_ANOMALY   = 296.4887

EPHEMERIS_TYPE = 0
CLASSIFICATION_TYPE = U
NORAD_CAT_ID   = 19257
ELEMENT_SET_NO = 999
REV_AT_EPOCH   = 96340
BSTAR          = .15520095E-3
MEAN_MOTION_DOT = .452E-5
MEAN_MOTION_DDOT = 0

CCSDS_OMM_VERS = 2.0
CREATION_DATE  = 
ORIGINATOR     = 

OBJECT_NAME    = COSMOS 1975
OBJECT_ID      = 1988-093A
CENTER_NAME    = EARTH
REF_FRAME      = TEME
TIME_SYSTEM    = UTC
MEAN_ELEMENT_THEORY = SGP/SGP4

EPOCH          = 2025-12-07T16:01:20.691840
MEAN_MOTION    = 15.26363603
ECCENTRICITY   = .00125648
INCLINATION    = 82.5200
RA_OF_ASC_NODE = 209.9057
ARG_OF_PERICENTER = 128.1871
MEAN_ANOMALY   = 232.0501

EPHEMERIS_TYPE = 0
CLASSIFICATION_TYPE = U
NORAD_CAT_ID   = 19573
ELEMENT_SET_NO = 999
REV_AT_EPOCH   = 536
BSTAR          = .43763537E-3
MEAN_MOTION_DOT = .11435E-3
MEAN_MOTION_DDOT = 0

CCSDS_OMM_VERS = 2.0
CREATION_DATE  = 
ORIGINATOR     = 

OBJECT_NAME    = SL-14 R/B
OBJECT_ID      = 1988-093B
CENTER_NAME    = EARTH
REF_FRAME      = TEME
TIME_SYSTEM    = UTC
MEAN_ELEMENT_THEORY = SGP/SGP4

EPOCH          = 2025-12-07T22:28:07.713696
MEAN_MOTION    = 14.85540619
ECCENTRICITY   = .00203385
INCLINATION    = 82.5301
RA_OF_ASC_NODE = 128.1750
ARG_OF_PERICENTER = 345.8079
MEAN_ANOMALY   = 132.9656

EPHEMERIS_TYPE = 0
CLASSIFICATION_TYPE = U
NORAD_CAT_ID   = 19574
ELEMENT_SET_NO = 999
REV_AT_EPOCH   = 98741
BSTAR          = .96272984E-4
MEAN_MOTION_DOT = .858E-5
MEAN_MOTION_DDOT = 0

CCSDS_OMM_VERS = 2.0
CREATION_DATE  = 
ORIGINATOR     = 

OBJECT_NAME    = SL-16 R/B
OBJECT_ID      = 1988-102B
CENTER_NAME    = EARTH
REF_FRAME      = TEME
TIME_SYSTEM    = UTC
MEAN_ELEMENT_THEORY = SGP/SGP4

EPOCH          = 2025-12-07T17:25:13.078848
MEAN_MOTION    = 14.16136726
ECCENTRICITY   = .00131841
INCLINATION    = 71.0000
RA_OF_ASC_NODE = 344.9935
ARG_OF_PERICENTER = 160.4211
MEAN_ANOMALY   = 199.7422

EPHEMERIS_TYPE = 0
CLASSIFICATION_TYPE = U
NORAD_CAT_ID   = 19650
ELEMENT_SET_NO = 999
REV_AT_EPOCH   = 91387
BSTAR          = -.5878919E-4
MEAN_MOTION_DOT = -.164E-5
MEAN_MOTION_DDOT = 0

CCSDS_OMM_VERS = 2.0
CREATION_DATE  = 
ORIGINATOR     = 

OBJECT_NAME    = INTERCOSMOS 24
OBJECT_ID      = 1989-080A
CENTER_NAME    = EARTH
REF_FRAME      = TEME
TIME_SYSTEM    = UTC
MEAN_ELEMENT_THEORY = SGP/SGP4

EPOCH          = 2025-12-07T23:27:22.417920
MEAN_MOTION    = 12.59425560
ECCENTRICITY   = .11887809
INCLINATION    = 82.6044
RA_OF_ASC_NODE = 164.0493
ARG_OF_PERICENTER = 145.5643
MEAN_ANOMALY   = 222.8670

EPHEMERIS_TYPE = 0
CLASSIFICATION_TYPE = U
NORAD_CAT_ID   = 20261
ELEMENT_SET_NO = 999
REV_AT_EPOCH   = 65525
BSTAR          = .42562474E-3
MEAN_MOTION_DOT = .1466E-4
MEAN_MOTION_DDOT = 0

CCSDS_OMM_VERS = 2.0
CREATION_DATE  = 
ORIGINATOR     = 

OBJECT_NAME    = SL-14 R/B
OBJECT_ID      = 1989-080C
CENTER_NAME    = EARTH
REF_FRAME      = TEME
TIME_SYSTEM    = UTC
MEAN_ELEMENT_THEORY = SGP/SGP4

EPOCH          = 2025-12-07T22:39:18.693504
MEAN_MOTION    = 12.50407737
ECCENTRICITY   = .12307436
INCLINATION    = 82.5935
RA_OF_ASC_NODE = 232.0988
ARG_OF_PERICENTER = 34.5460
MEAN_ANOMALY   = 332.9683

EPHEMERIS_TYPE = 0
CLASSIFICATION_TYPE = U
NORAD_CAT_ID   = 20262
ELEMENT_SET_NO = 999
REV_AT_EPOCH   = 64868
BSTAR          = .20246849E-3
MEAN_MOTION_DOT = .692E-5
MEAN_MOTION_DDOT = 0

CCSDS_OMM_VERS = 2.0
CREATION_DATE  = 
ORIGINATOR     = 

OBJECT_NAME    = DELTA 1 R/B
OBJECT_ID      = 1989-089B
CENTER_NAME    = EARTH
REF_FRAME      = TEME
TIME_SYSTEM    = UTC
MEAN_ELEMENT_THEORY = SGP/SGP4

EPOCH          = 2025-12-07T21:07:24.773376
MEAN_MOTION    = 14.50566543
ECCENTRICITY   = .00704001
INCLINATION    = 97.0757
RA_OF_ASC_NODE = 198.8878
ARG_OF_PERICENTER = 53.3933
MEAN_ANOMALY   = 307.3713

EPHEMERIS_TYPE = 0
CLASSIFICATION_TYPE = U
NORAD_CAT_ID   = 20323
ELEMENT_SET_NO = 999
REV_AT_EPOCH   = 88242
BSTAR          = .17600633E-3
MEAN_MOTION_DOT = .677E-5
MEAN_MOTION_DDOT = 0

CCSDS_OMM_VERS = 2.0
CREATION_DATE  = 
ORIGINATOR     = 

OBJECT_NAME    = ARIANE 40 R/B
OBJECT_ID      = 1990-005H
CENTER_NAME    = EARTH
REF_FRAME      = TEME
TIME_SYSTEM    = UTC
MEAN_ELEMENT_THEORY = SGP/SGP4

EPOCH          = 2025-12-07T20:59:25.531584
MEAN_MOTION    = 14.39792846
ECCENTRICITY   = .00111762
INCLINATION    = 98.3249
RA_OF_ASC_NODE = 40.1899
ARG_OF_PERICENTER = 118.9602
MEAN_ANOMALY   = 241.2709

EPHEMERIS_TYPE = 0
CLASSIFICATION_TYPE = U
NORAD_CAT_ID   = 20443
ELEMENT_SET_NO = 999
REV_AT_EPOCH   = 87959
BSTAR          = .19117553E-3
MEAN_MOTION_DOT = .558E-5
MEAN_MOTION_DDOT = 0

