COSMOS 1933             
1 18958U 88020A   25341.74006616  .00007104  00000+0  35751-3 0  9999
2 18958  82.5134 341.8188 0005440 141.6847 218.4773 15.17049358 36287
SL-3 R/B                
1 19046U 88032B   25341.91994606  .00006646  00000+0  32114-3 0  9995
2 19046  97.5078 320.6736 0026185 189.8109 170.2617 15.18666663 38174
SL-16 R/B               
1 19120U 88039B   25341.95545325  .00000212  00000+0  12278-3 0  9991
2 19120  71.0152 262.5139 0019845 124.3736 235.9270 14.19595679945363
COSMOS 1953             
1 19210U 88050A   25341.78929096  .00009413  00000+0  35463-3 0  9999
2 19210  82.5094 250.5477 0013858  86.4913 273.7910 15.26853706 23758
SL-8 R/B                
1 19257U 88053B   25341.95191301  .00000452  00000+0  15520-3 0  9998
2 19257  74.0476 281.5435 0019089 127.4492 296.4887 14.38854337963400
COSMOS 1975             
1 19573U 88093A   25341.66760060  .00011435  00000+0  43764-3 0  9999
2 19573  82.5200 209.9057 0012564 128.1871 232.0501 15.26363603  5364
SL-14 R/B               
1 19574U 88093B   25341.93620039  .00000858  00000+0  96273-4 0  9992
2 19574  82.5301 128.1750 0020338 345.8079 132.9656 14.85540619987417
SL-16 R/B               
1 19650U 88102B   25341.72584582 -.00000164  00000+0 -58789-4 0  9999
2 19650  71.0000 344.9935 0013184 160.4211 199.7422 14.16136726913879
INTERCOSMOS 24          
1 20261U 89080A   25341.97734280  .00001466  00000+0  42562-3 0  9999
2 20261  82.6044 164.0493 1188780 145.5643 222.8670 12.59425560655254
SL-14 R/B               
1 20262U 89080C   25341.94396636  .00000692  00000+0  20247-3 0  9992
2 20262  82.5935 232.0988 1230743  34.5460 332.9683 12.50407737648682
DELTA 1 R/B             
1 20323U 89089B   25341.88014784  .00000677  00000+0  17601-3 0  9996
2 20323  97.0757 198.8878 0070400  53.3933 307.3713 14.50566543882420
ARIANE 40 R/B           
1 20443U 90005H   25341.87460106  .00000558  00000+0  19118-3 0  9994
2 20443  98.3249  40.1899 0011176 118.9602 241.2709 14.39792846879590
